STARLINK-30961
1 58445U 23183J   26061.16668981  .02510620  00000+0  11314+0 0  9997
2 58445  42.9990  83.5178 0001641 260.0491 347.9818 15.16474664  5770
